[{"OBJECT_NAME":"NUSAT-48 (HENRIETTA LEAVITT)","OBJECT_ID":"2024-149AG","EPOCH":"2026-03-09T19:19:17.269536","MEAN_MOTION":15.29812597,"ECCENTRICITY":0.00027538,"INCLINATION":97.3923,"RA_OF_ASC_NODE":150.8264,"ARG_OF_PERICENTER":263.3026,"MEAN_ANOMALY":96.7901,"EPHEMERIS_TYPE":0,"CLASSIFICATION_TYPE":"U","NORAD_CAT_ID":60498,"ELEMENT_SET_NO":999,"REV_AT_EPOCH":8694,"BSTAR":0.00045211745,"MEAN_MOTION_DOT":0.00012988,"MEAN_MOTION_DDOT":0},{"OBJECT_NAME":"STARLINK-33837","OBJECT_ID":"2025-071J","EPOCH":"2026-03-09T11:29:17.982240","MEAN_MOTION":15.30193046,"ECCENTRICITY":0.00013291,"INCLINATION":53.1575,"RA_OF_ASC_NODE":141.1847,"ARG_OF_PERICENTER":72.9359,"MEAN_ANOMALY":287.1787,"EPHEMERIS_TYPE":0,"CLASSIFICATION_TYPE":"U","NORAD_CAT_ID":63501,"ELEMENT_SET_NO":999,"REV_AT_EPOCH":5267,"BSTAR":0.00071147216,"MEAN_MOTION_DOT":0.00020767,"MEAN_MOTION_DDOT":0}]
